IRIDIUM 136             
1 42962U 17061H   24076.33387209  .00000243  00000+0  79867-4 0  9991
2 42962  86.4028   9.1150 0001946  89.7913 270.3505 14.34218135336899
